     2.100          NAVIGATION                              RINEX VERSION / TYPE
fic2rin                                 09/21/2010 00:10:04 PGM / RUN BY / DATE
                                                            END OF HEADER
15 10  9 20 14  0  0.0 -.206569209695D-03  .522959453519D-11  .000000000000D+00
     .810000000000D+02 -.245625000000D+02  .449625871579D-08 -.905001719811D-01
    -.122562050819D-05  .273350032512D-02  .112522393465D-04  .515382026291D+04
     .136800000000D+06  .391155481339D-07 -.684235290632D+00 -.484287738800D-07
     .952673664488D+00  .155500000000D+03 -.211870828105D+00 -.805354974839D-08
    -.260010830495D-09  .100000000000D+01  .160200000000D+04  .000000000000D+00
     .240000000000D+01  .000000000000D+00 -.977888703346D-08  .810000000000D+02
     .129606000000D+06  .400000000000D+01
16 10  9 20 14  0  0.0 -.110215041786D-03 -.341060513165D-11  .000000000000D+00
     .800000000000D+02 -.368437500000D+02  .472662545435D-08  .159806871857D+01
    -.168196856976D-05  .580793444533D-02  .323541462421D-05  .515365574646D+04
     .136800000000D+06  .119209289551D-06  .145638963033D+01  .242143869400D-07
     .972918493320D+00  .321125000000D+03 -.161106573044D+00 -.835070498324D-08
    -.260367988229D-09  .100000000000D+01  .160200000000D+04  .000000000000D+00
     .240000000000D+01  .000000000000D+00 -.102445483208D-07  .800000000000D+02
     .129606000000D+06  .400000000000D+01
17 10  9 20 14  0  0.0  .171460676938D-03  .147792889038D-11  .000000000000D+00
     .330000000000D+02 -.587812500000D+02  .439125434194D-08  .564162567613D+00
    -.298768281937D-05  .559795205481D-02  .111460685730D-04  .515366861725D+04
     .136800000000D+06 -.745058059692D-08  .249973177259D+01  .949949026108D-07
     .960760546893D+00  .164750000000D+03 -.250991034551D+01 -.803640617715D-08
    -.326085011321D-09  .100000000000D+01  .160200000000D+04  .000000000000D+00
     .240000000000D+01  .000000000000D+00 -.102445483208D-07  .330000000000D+02
     .129606000000D+06  .400000000000D+01
18 10  9 20 14  0  0.0  .941767357290D-04  .227373675443D-11  .000000000000D+00
     .360000000000D+02 -.222812500000D+02  .537522389965D-08  .192645073126D+01
    -.123493373394D-05  .118569983169D-01  .413879752159D-05  .515372147560D+04
     .136800000000D+06 -.227242708206D-06 -.169393398461D+01 -.150874257088D-06
     .935512162259D+00  .286625000000D+03 -.229467785015D+01 -.863285959325D-08
    -.158578033983D-09  .100000000000D+01  .160200000000D+04  .000000000000D+00
     .240000000000D+01  .000000000000D+00 -.107102096081D-07  .360000000000D+02
     .129606000000D+06  .400000000000D+01
19 10  9 20 14  0  0.0 -.674747861922D-04 -.318323145621D-11  .000000000000D+00
     .740000000000D+02 -.525625000000D+02  .441018370185D-08 -.287091379583D+00
    -.288337469101D-05  .675307656638D-02  .107251107693D-04  .515379317856D+04
     .136800000000D+06  .130385160446D-06  .255445211070D+01 -.167638063431D-07
     .958394611908D+00  .173562500000D+03 -.579975774319D-01 -.801354808216D-08
    -.279654505876D-09  .100000000000D+01  .160200000000D+04  .000000000000D+00
     .240000000000D+01  .000000000000D+00 -.149011611938D-07  .740000000000D+02
     .129606000000D+06  .400000000000D+01
20 10  9 20 14  0  0.0  .509386882186D-04 -.454747350886D-12  .000000000000D+00
     .360000000000D+02 -.150000000000D+02  .528414867743D-08  .228139178323D+01
    -.799074769020D-06  .414478918537D-02  .395253300667D-05  .515353063965D+04
     .136800000000D+06  .577419996262D-07 -.174792507415D+01 -.484287738800D-07
     .935494760849D+00  .288687500000D+03  .129741488734D+01 -.854928468345D-08
    -.825034365993D-10  .100000000000D+01  .160200000000D+04  .000000000000D+00
     .240000000000D+01  .000000000000D+00 -.791624188423D-08  .360000000000D+02
     .129606000000D+06  .400000000000D+01
21 10  9 20 14  0  0.0 -.895052216947D-04 -.272848410532D-11  .000000000000D+00
     .181000000000D+03  .554062500000D+02  .499199365086D-08  .308906811163D+01
     .268407166004D-05  .168498303974D-01  .854022800922D-05  .515363571930D+04
     .136800000000D+06 -.614672899246D-07 -.275024967940D+01 -.232830643654D-06
     .932615841936D+00  .197000000000D+03 -.244467720013D+01 -.803962059675D-08
     .405731186047D-09  .100000000000D+01  .160200000000D+04  .000000000000D+00
     .240000000000D+01  .000000000000D+00 -.121071934700D-07  .181000000000D+03
     .129606000000D+06  .400000000000D+01
22 10  9 20 14  0  0.0  .162634998560D-03 -.682121026330D-12  .000000000000D+00
     .300000000000D+02 -.212812500000D+02  .549451458287D-08  .102479825999D+01
    -.113248825073D-05  .559943960980D-02  .400096178055D-05  .515371255112D+04
     .136800000000D+06 -.670552253723D-07 -.168926572378D+01 -.447034835815D-07
     .933200644901D+00  .288000000000D+03 -.193348496365D+01 -.873214944336D-08
    -.197508227010D-09  .100000000000D+01  .160200000000D+04  .000000000000D+00
     .240000000000D+01  .000000000000D+00 -.176951289177D-07  .300000000000D+02
     .129606000000D+06  .400000000000D+01
23 10  9 20 14  0  0.0  .352895818651D-03 -.181898940355D-11  .000000000000D+00
     .500000000000D+02 -.108750000000D+02  .419517474587D-08 -.722220451564D+00
    -.694766640663D-06  .700944336131D-02  .103544443846D-04  .515364328384D+04
     .136800000000D+06  .119209289551D-06 -.657487771919D+00 -.838190317154D-07
     .967011440777D+00  .179625000000D+03  .310209728136D+01 -.787854245863D-08
    -.152149194768D-09  .100000000000D+01  .160200000000D+04  .000000000000D+00
     .240000000000D+01  .000000000000D+00 -.200234353542D-07  .500000000000D+02
     .129606000000D+06  .400000000000D+01
24 10  9 20 14  0  0.0  .323251821101D-03  .318323145621D-11  .000000000000D+00
     .340000000000D+02  .512187500000D+02  .475198365348D-08 -.488422923061D+00
     .265613198280D-05  .572342681699D-02  .815279781818D-05  .515477590942D+04
     .136800000000D+06  .391155481339D-07 -.270970299718D+01 -.162050127983D-06
     .949202708480D+00  .219312500000D+03 -.388611561311D+00 -.821462788651D-08
     .325370695853D-09  .100000000000D+01  .160200000000D+04  .000000000000D+00
     .240000000000D+01  .000000000000D+00 -.139698386192D-08  .340000000000D+02
     .129606000000D+06  .400000000000D+01
25 10  9 20 14  0  0.0 -.421106815338D-04 -.136424205266D-11  .000000000000D+00
     .510000000000D+02 -.287187500000D+02  .499485091273D-08  .113772111865D+01
    -.152550637722D-05  .743752345443D-03  .279396772385D-05  .515376925278D+04
     .136800000000D+06 -.931322574615D-08  .141188762871D+01  .260770320892D-07
     .960483404378D+00  .324562500000D+03  .197317912596D+01 -.847606734794D-08
    -.139291516336D-09  .100000000000D+01  .160200000000D+04  .100000000000D+01
     .240000000000D+01  .000000000000D+00  .465661287308D-08  .510000000000D+02
     .129606000000D+06  .400000000000D+01
26 10  9 20 14  0  0.0 -.144494697452D-04 -.716227077646D-11  .000000000000D+00
     .350000000000D+02 -.218750000000D+01  .371444043564D-08 -.100627857438D+01
     .230967998505D-06  .197977982461D-01  .117011368275D-04  .515364530563D+04
     .136800000000D+06  .819563865662D-07 -.597832025121D+00  .419095158577D-06
     .989799324475D+00  .170906250000D+03  .111068767406D+01 -.775675167127D-08
    -.200722646618D-09  .100000000000D+01  .160200000000D+04  .000000000000D+00
     .240000000000D+01  .000000000000D+00 -.605359673500D-08  .350000000000D+02
     .129606000000D+06  .400000000000D+01
27 10  9 20 14  0  0.0  .190756749362D-03  .352429196937D-11  .000000000000D+00
     .280000000000D+02  .780625000000D+02  .429767901558D-08  .125092808332D+00
     .400654971600D-05  .215788120404D-01  .864826142788D-05  .515357916451D+04
     .136800000000D+06 -.262632966042D-06  .328970527080D+00 -.212341547012D-06
     .979577064437D+00  .228812500000D+03 -.137067071935D+01 -.833749014707D-08
     .433232331580D-09  .100000000000D+01  .160200000000D+04  .000000000000D+00
     .240000000000D+01  .000000000000D+00 -.419095158577D-08  .280000000000D+02
     .129606000000D+06  .400000000000D+01
28 10  9 20 14  0  0.0 -.283773988485D-05  .147792889038D-11  .000000000000D+00
     .810000000000D+02 -.392812500000D+02  .485663086960D-08  .116839392160D+01
    -.213459134102D-05  .161942110863D-01  .394508242607D-05  .515367794991D+04
     .136800000000D+06 -.370666384697D-06  .146395570951D+01  .484287738800D-07
     .971172902895D+00  .315562500000D+03 -.194659472262D+01 -.862107338803D-08
    -.242152943785D-09  .100000000000D+01  .160200000000D+04  .000000000000D+00
     .240000000000D+01  .000000000000D+00 -.107102096081D-07  .810000000000D+02
     .129606000000D+06  .400000000000D+01
30 10  9 20 14  0  0.0  .280063599348D-03  .341060513165D-11  .000000000000D+00
     .570000000000D+02 -.272500000000D+02  .507592571839D-08  .155873088068D+01
    -.175461173058D-05  .126235105563D-01  .268593430519D-05  .515368919563D+04
     .136800000000D+06 -.298023223877D-07  .138338930865D+01 -.279396772385D-06
     .957129351616D+00  .325718750000D+03  .151694816289D+01 -.852035490698D-08
    -.109290266664D-09  .100000000000D+01  .160200000000D+04  .000000000000D+00
     .240000000000D+01  .000000000000D+00 -.791624188423D-08  .570000000000D+02
     .129606000000D+06  .400000000000D+01
31 10  9 20 14  0  0.0 -.768061727285D-05  .318323145621D-11  .000000000000D+00
     .880000000000D+02  .817500000000D+02  .422446168007D-08 -.234686144589D+01
     .446289777756D-05  .739731756039D-02  .764988362789D-05  .515376672554D+04
     .136800000000D+06 -.335276126862D-07  .384681851749D+00  .128522515297D-06
     .978089662960D+00  .240562500000D+03 -.105174223543D+01 -.781461122421D-08
     .453233164695D-09  .100000000000D+01  .160200000000D+04  .000000000000D+00
     .240000000000D+01  .000000000000D+00 -.130385160446D-07  .880000000000D+02
     .129606000000D+06  .400000000000D+01
